<?xml version="1.0" encoding="UTF-8"?>
<ndm xmlns:xsi="http://www.w3.org/2001/XMLSchema-instance" xsi:noNamespaceSchemaLocation="https://sanaregistry.org/r/ndmxml_unqualified/ndmxml-2.0.0-master-2.0.xsd">
<omm id="CCSDS_OMM_VERS" version="2.0">
<header><CREATION_DATE/><ORIGINATOR/></header><body><segment><metadata><OBJECT_NAME>ONEWEB-0033</OBJECT_NAME><OBJECT_ID>2020-008M</OBJECT_ID><CENTER_NAME>EARTH</CENTER_NAME><REF_FRAME>TEME</REF_FRAME><TIME_SYSTEM>UTC</TIME_SYSTEM><MEAN_ELEMENT_THEORY>SGP4</MEAN_ELEMENT_THEORY></metadata><data><meanElements><EPOCH>2025-05-23T15:06:35.852832</EPOCH><MEAN_MOTION>13.10370626</MEAN_MOTION><ECCENTRICITY>.0002068</ECCENTRICITY><INCLINATION>87.8799</INCLINATION><RA_OF_ASC_NODE>113.9654</RA_OF_ASC_NODE><ARG_OF_PERICENTER>90.5291</ARG_OF_PERICENTER><MEAN_ANOMALY>269.6073</MEAN_ANOMALY></meanElements><tleParameters><EPHEMERIS_TYPE>0</EPHEMERIS_TYPE><CLASSIFICATION_TYPE>U</CLASSIFICATION_TYPE><NORAD_CAT_ID>45142</NORAD_CAT_ID><ELEMENT_SET_NO>999</ELEMENT_SET_NO><REV_AT_EPOCH>25719</REV_AT_EPOCH><BSTAR>-.16194E-2</BSTAR><MEAN_MOTION_DOT>-.553E-5</MEAN_MOTION_DOT><MEAN_MOTION_DDOT>0</MEAN_MOTION_DDOT></tleParameters></data></segment></body></omm>
<omm id="CCSDS_OMM_VERS" version="2.0">
<header><CREATION_DATE/><ORIGINATOR/></header><body><segment><metadata><OBJECT_NAME>ONEWEB-0035</OBJECT_NAME><OBJECT_ID>2020-008N</OBJECT_ID><CENTER_NAME>EARTH</CENTER_NAME><REF_FRAME>TEME</REF_FRAME><TIME_SYSTEM>UTC</TIME_SYSTEM><MEAN_ELEMENT_THEORY>SGP4</MEAN_ELEMENT_THEORY></metadata><data><meanElements><EPOCH>2025-05-23T21:20:43.010016</EPOCH><MEAN_MOTION>13.10375753</MEAN_MOTION><ECCENTRICITY>.0002052</ECCENTRICITY><INCLINATION>87.8811</INCLINATION><RA_OF_ASC_NODE>113.9129</RA_OF_ASC_NODE><ARG_OF_PERICENTER>87.5337</ARG_OF_PERICENTER><MEAN_ANOMALY>272.6025</MEAN_ANOMALY></meanElements><tleParameters><EPHEMERIS_TYPE>0</EPHEMERIS_TYPE><CLASSIFICATION_TYPE>U</CLASSIFICATION_TYPE><NORAD_CAT_ID>45143</NORAD_CAT_ID><ELEMENT_SET_NO>999</ELEMENT_SET_NO><REV_AT_EPOCH>25784</REV_AT_EPOCH><BSTAR>.82093E-3</BSTAR><MEAN_MOTION_DOT>.299E-5</MEAN_MOTION_DOT><MEAN_MOTION_DDOT>0</MEAN_MOTION_DDOT></tleParameters></data></segment></body></omm>
<omm id="CCSDS_OMM_VERS" version="2.0">
<header><CREATION_DATE/><ORIGINATOR/></header><body><segment><metadata><OBJECT_NAME>ONEWEB-0036</OBJECT_NAME><OBJECT_ID>2020-008P</OBJECT_ID><CENTER_NAME>EARTH</CENTER_NAME><REF_FRAME>TEME</REF_FRAME><TIME_SYSTEM>UTC</TIME_SYSTEM><MEAN_ELEMENT_THEORY>SGP4</MEAN_ELEMENT_THEORY></metadata><data><meanElements><EPOCH>2025-05-23T21:06:21.467232</EPOCH><MEAN_MOTION>13.10376209</MEAN_MOTION><ECCENTRICITY>.0002122</ECCENTRICITY><INCLINATION>87.8806</INCLINATION><RA_OF_ASC_NODE>113.8582</RA_OF_ASC_NODE><ARG_OF_PERICENTER>79.5006</ARG_OF_PERICENTER><MEAN_ANOMALY>280.6360</MEAN_ANOMALY></meanElements><tleParameters><EPHEMERIS_TYPE>0</EPHEMERIS_TYPE><CLASSIFICATION_TYPE>U</CLASSIFICATION_TYPE><NORAD_CAT_ID>45144</NORAD_CAT_ID><ELEMENT_SET_NO>999</ELEMENT_SET_NO><REV_AT_EPOCH>25824</REV_AT_EPOCH><BSTAR>-.83753E-3</BSTAR><MEAN_MOTION_DOT>-.28E-5</MEAN_MOTION_DOT><MEAN_MOTION_DDOT>0</MEAN_MOTION_DDOT></tleParameters></data></segment></body></omm>
<omm id="CCSDS_OMM_VERS" version="2.0">
<header><CREATION_DATE/><ORIGINATOR/></header><body><segment><metadata><OBJECT_NAME>ONEWEB-0038</OBJECT_NAME><OBJECT_ID>2020-008Q</OBJECT_ID><CENTER_NAME>EARTH</CENTER_NAME><REF_FRAME>TEME</REF_FRAME><TIME_SYSTEM>UTC</TIME_SYSTEM><MEAN_ELEMENT_THEORY>SGP4</MEAN_ELEMENT_THEORY></metadata><data><meanElements><EPOCH>2025-05-24T10:11:14.114688</EPOCH><MEAN_MOTION>13.11118630</MEAN_MOTION><ECCENTRICITY>.0001169</ECCENTRICITY><INCLINATION>87.8814</INCLINATION><RA_OF_ASC_NODE>98.5425</RA_OF_ASC_NODE><ARG_OF_PERICENTER>65.8095</ARG_OF_PERICENTER><MEAN_ANOMALY>294.3155</MEAN_ANOMALY></meanElements><tleParameters><EPHEMERIS_TYPE>0</EPHEMERIS_TYPE><CLASSIFICATION_TYPE>U</CLASSIFICATION_TYPE><NORAD_CAT_ID>45145</NORAD_CAT_ID><ELEMENT_SET_NO>999</ELEMENT_SET_NO><REV_AT_EPOCH>26016</REV_AT_EPOCH><BSTAR>-.85624E-1</BSTAR><MEAN_MOTION_DOT>-.30104E-3</MEAN_MOTION_DOT><MEAN_MOTION_DDOT>0</MEAN_MOTION_DDOT></tleParameters></data></segment></body></omm>
<omm id="CCSDS_OMM_VERS" version="2.0">
<header><CREATION_DATE/><ORIGINATOR/></header><body><segment><metadata><OBJECT_NAME>ONEWEB-0039</OBJECT_NAME><OBJECT_ID>2020-008R</OBJECT_ID><CENTER_NAME>EARTH</CENTER_NAME><REF_FRAME>TEME</REF_FRAME><TIME_SYSTEM>UTC</TIME_SYSTEM><MEAN_ELEMENT_THEORY>SGP4</MEAN_ELEMENT_THEORY></metadata><data><meanElements><EPOCH>2025-05-24T09:30:56.313504</EPOCH><MEAN_MOTION>13.10372389</MEAN_MOTION><ECCENTRICITY>.0001685</ECCENTRICITY><INCLINATION>87.8803</INCLINATION><RA_OF_ASC_NODE>113.7776</RA_OF_ASC_NODE><ARG_OF_PERICENTER>69.2369</ARG_OF_PERICENTER><MEAN_ANOMALY>290.8938</MEAN_ANOMALY></meanElements><tleParameters><EPHEMERIS_TYPE>0</EPHEMERIS_TYPE><CLASSIFICATION_TYPE>U</CLASSIFICATION_TYPE><NORAD_CAT_ID>45146</NORAD_CAT_ID><ELEMENT_SET_NO>999</ELEMENT_SET_NO><REV_AT_EPOCH>25802</REV_AT_EPOCH><BSTAR>-.15686E-2</BSTAR><MEAN_MOTION_DOT>-.535E-5</MEAN_MOTION_DOT><MEAN_MOTION_DDOT>0</MEAN_MOTION_DDOT></tleParameters></data></segment></body></omm>
<omm id="CCSDS_OMM_VERS" version="2.0">
<header><CREATION_DATE/><ORIGINATOR/></header><body><segment><metadata><OBJECT_NAME>ONEWEB-0040</OBJECT_NAME><OBJECT_ID>2020-008S</OBJECT_ID><CENTER_NAME>EARTH</CENTER_NAME><REF_FRAME>TEME</REF_FRAME><TIME_SYSTEM>UTC</TIME_SYSTEM><MEAN_ELEMENT_THEORY>SGP4</MEAN_ELEMENT_THEORY></metadata><data><meanElements><EPOCH>2025-05-24T03:51:30.771648</EPOCH><MEAN_MOTION>13.10370388</MEAN_MOTION><ECCENTRICITY>.0001977</ECCENTRICITY><INCLINATION>87.8809</INCLINATION><RA_OF_ASC_NODE>113.8483</RA_OF_ASC_NODE><ARG_OF_PERICENTER>83.4558</ARG_OF_PERICENTER><MEAN_ANOMALY>276.6795</MEAN_ANOMALY></meanElements><tleParameters><EPHEMERIS_TYPE>0</EPHEMERIS_TYPE><CLASSIFICATION_TYPE>U</CLASSIFICATION_TYPE><NORAD_CAT_ID>45147</NORAD_CAT_ID><ELEMENT_SET_NO>999</ELEMENT_SET_NO><REV_AT_EPOCH>25770</REV_AT_EPOCH><BSTAR>-.96822E-3</BSTAR><MEAN_MOTION_DOT>-.325E-5</MEAN_MOTION_DOT><MEAN_MOTION_DDOT>0</MEAN_MOTION_DDOT></tleParameters></data></segment></body></omm>
<omm id="CCSDS_OMM_VERS" version="2.0">
<header><CREATION_DATE/><ORIGINATOR/></header><body><segment><metadata><OBJECT_NAME>ONEWEB-0043</OBJECT_NAME><OBJECT_ID>2020-008U</OBJECT_ID><CENTER_NAME>EARTH</CENTER_NAME><REF_FRAME>TEME</REF_FRAME><TIME_SYSTEM>UTC</TIME_SYSTEM><MEAN_ELEMENT_THEORY>SGP4</MEAN_ELEMENT_THEORY></metadata><data><meanElements><EPOCH>2025-05-24T03:53:54.129984</EPOCH><MEAN_MOTION>13.10370561</MEAN_MOTION><ECCENTRICITY>.0002024</ECCENTRICITY><INCLINATION>87.8803</INCLINATION><RA_OF_ASC_NODE>113.8363</RA_OF_ASC_NODE><ARG_OF_PERICENTER>71.5849</ARG_OF_PERICENTER><MEAN_ANOMALY>288.5498</MEAN_ANOMALY></meanElements><tleParameters><EPHEMERIS_TYPE>0</EPHEMERIS_TYPE><CLASSIFICATION_TYPE>U</CLASSIFICATION_TYPE><NORAD_CAT_ID>45149</NORAD_CAT_ID><ELEMENT_SET_NO>999</ELEMENT_SET_NO><REV_AT_EPOCH>25801</REV_AT_EPOCH><BSTAR>-.12818E-2</BSTAR><MEAN_MOTION_DOT>-.435E-5</MEAN_MOTION_DOT><MEAN_MOTION_DDOT>0</MEAN_MOTION_DDOT></tleParameters></data></segment></body></omm>
<omm id="CCSDS_OMM_VERS" version="2.0">
<header><CREATION_DATE/><ORIGINATOR/></header><body><segment><metadata><OBJECT_NAME>ONEWEB-0044</OBJECT_NAME><OBJECT_ID>2020-008V</OBJECT_ID><CENTER_NAME>EARTH</CENTER_NAME><REF_FRAME>TEME</REF_FRAME><TIME_SYSTEM>UTC</TIME_SYSTEM><MEAN_ELEMENT_THEORY>SGP4</MEAN_ELEMENT_THEORY></metadata><data><meanElements><EPOCH>2025-05-24T04:34:34.149792</EPOCH><MEAN_MOTION>13.10378582</MEAN_MOTION><ECCENTRICITY>.0002015</ECCENTRICITY><INCLINATION>87.8809</INCLINATION><RA_OF_ASC_NODE>113.8228</RA_OF_ASC_NODE><ARG_OF_PERICENTER>76.6058</ARG_OF_PERICENTER><MEAN_ANOMALY>283.5294</MEAN_ANOMALY></meanElements><tleParameters><EPHEMERIS_TYPE>0</EPHEMERIS_TYPE><CLASSIFICATION_TYPE>U</CLASSIFICATION_TYPE><NORAD_CAT_ID>45150</NORAD_CAT_ID><ELEMENT_SET_NO>999</ELEMENT_SET_NO><REV_AT_EPOCH>25830</REV_AT_EPOCH><BSTAR>-.49784E-4</BSTAR><MEAN_MOTION_DOT>-.5E-7</MEAN_MOTION_DOT><MEAN_MOTION_DDOT>0</MEAN_MOTION_DDOT></tleParameters></data></segment></body></omm>

</ndm>
