ONEWEB-0033             
1 45142U 20008M   25143.62958163 -.00000553  00000+0 -16194-2 0  9998
2 45142  87.8799 113.9654 0002068  90.5291 269.6073 13.10370626257193
ONEWEB-0035             
1 45143U 20008N   25143.88938669  .00000299  00000+0  82093-3 0  9993
2 45143  87.8811 113.9129 0002052  87.5337 272.6025 13.10375753257845
ONEWEB-0036             
1 45144U 20008P   25143.87941513 -.00000280  00000+0 -83753-3 0  9991
2 45144  87.8806 113.8582 0002122  79.5006 280.6360 13.10376209258247
ONEWEB-0038             
1 45145U 20008Q   25144.42446892 -.00030104  00000+0 -85624-1 0  9999
2 45145  87.8814  98.5425 0001169  65.8095 294.3155 13.11118630260169
ONEWEB-0039             
1 45146U 20008R   25144.39648511 -.00000535  00000+0 -15686-2 0  9995
2 45146  87.8803 113.7776 0001685  69.2369 290.8938 13.10372389258026
ONEWEB-0040             
1 45147U 20008S   25144.16077282 -.00000325  00000+0 -96822-3 0  9991
2 45147  87.8809 113.8483 0001977  83.4558 276.6795 13.10370388257705
ONEWEB-0043             
1 45149U 20008U   25144.16243206 -.00000435  00000+0 -12818-2 0  9998
2 45149  87.8803 113.8363 0002024  71.5849 288.5498 13.10370561258013
ONEWEB-0044             
1 45150U 20008V   25144.19067303 -.00000005  00000+0 -49784-4 0  9992
2 45150  87.8809 113.8228 0002015  76.6058 283.5294 13.10378582258301
